[{"OBJECT_NAME":"RESURS-P 4","OBJECT_ID":"2024-061A","EPOCH":"2026-03-10T00:09:50.865408","MEAN_MOTION":15.32930455,"ECCENTRICITY":0.00024315,"INCLINATION":97.2654,"RA_OF_ASC_NODE":18.6595,"ARG_OF_PERICENTER":59.481,"MEAN_ANOMALY":300.6672,"EPHEMERIS_TYPE":0,"CLASSIFICATION_TYPE":"U","NORAD_CAT_ID":59371,"ELEMENT_SET_NO":999,"REV_AT_EPOCH":10857,"BSTAR":0.00016169192,"MEAN_MOTION_DOT":5.066e-5,"MEAN_MOTION_DDOT":0},{"OBJECT_NAME":"STARLINK-35385","OBJECT_ID":"2025-224AA","EPOCH":"2026-03-09T05:15:28.942272","MEAN_MOTION":15.30183882,"ECCENTRICITY":9.069e-5,"INCLINATION":53.1605,"RA_OF_ASC_NODE":13.4269,"ARG_OF_PERICENTER":116.6777,"MEAN_ANOMALY":243.4317,"EPHEMERIS_TYPE":0,"CLASSIFICATION_TYPE":"U","NORAD_CAT_ID":65906,"ELEMENT_SET_NO":999,"REV_AT_EPOCH":2478,"BSTAR":0.0010647588,"MEAN_MOTION_DOT":0.00031293,"MEAN_MOTION_DDOT":0}]
